COSMOS 2251 DEB         
1 34478U 93036TX  25325.70474816  .00042825  00000+0  29068-2 0  9998
2 34478  74.0425  50.0763 0038205 273.7702 214.0154 15.05594934886562
COSMOS 2251 DEB         
1 34481U 93036UA  25325.81012435  .00002014  00000+0  73308-3 0  9992
2 34481  73.9793  91.7968 0070965 269.9713 212.8816 14.32432746871497
COSMOS 2251 DEB         
1 34482U 93036UB  25325.87534796  .00015635  00000+0  26557-2 0  9994
2 34482  74.0379 263.9655 0046405 327.7251  96.3184 14.68454144878819
COSMOS 2251 DEB         
1 34544U 93036UE  25319.50125295  .00000923  00000+0  86040-3 0  9994
2 34544  73.9158 248.1262 0385558 281.4916 201.1061 13.54642567825138
COSMOS 2251 DEB         
1 34546U 93036UG  25325.90816012  .00002577  00000+0  73992-3 0  9990
2 34546  74.0311 288.0228 0021195   4.6325  26.4318 14.45266742877252
COSMOS 2251 DEB         
1 34547U 93036UH  25324.88351440  .00007197  00000+0  11574-2 0  9996
2 34547  74.0284 143.2431 0019821 223.8554 136.1045 14.71605509882004
COSMOS 2251 DEB         
1 34553U 93036UP  25325.79690749  .00006537  00000+0  14420-2 0  9992
2 34553  74.0261 231.7226 0020003 310.4843 105.5994 14.57420785877911
COSMOS 2251 DEB         
1 34554U 93036UQ  25326.04200125  .00000919  00000+0  31241-3 0  9996
2 34554  74.0386 337.1031 0022096  45.4399 345.9027 14.37876297874588
COSMOS 2251 DEB         
1 34556U 93036US  25325.97226299  .00013292  00000+0  18887-2 0  9997
2 34556  74.0147 165.6371 0010284 223.8604 261.8948 14.76915782880225
COSMOS 2251 DEB         
1 34560U 93036UW  25326.04912443  .00011347  00000+0  18302-2 0  9995
2 34560  74.0162 182.4027 0015981 263.2485 219.4325 14.71420147879470
COSMOS 2251 DEB         
1 34563U 93036UZ  25325.86136809  .00001849  00000+0  52143-3 0  9999
2 34563  74.0390 242.6818 0013492 337.7118  93.6908 14.46408805878958
COSMOS 2251 DEB         
1 34564U 93036VA  25326.03910832  .00000942  00000+0  30296-3 0  9994
2 34564  74.0322 276.3079 0018087  24.7494 102.1639 14.40635710877083
COSMOS 2251 DEB         
1 34567U 93036VD  25326.07382154  .00000425  00000+0  19081-3 0  9996
2 34567  74.0411 193.9729 0074798 272.6177 238.6769 14.23988659868302
COSMOS 2251 DEB         
1 34569U 93036VF  25325.82265529  .00001692  00000+0  65002-3 0  9997
2 34569  73.9919 235.9524 0156445  69.2631 347.9536 14.24663826866705
